[{"OBJECT_NAME":"OBJECT C","OBJECT_ID":"2024-085C","EPOCH":"2026-03-09T22:49:58.289376","MEAN_MOTION":15.31893958,"ECCENTRICITY":0.00283931,"INCLINATION":97.3357,"RA_OF_ASC_NODE":145.6975,"ARG_OF_PERICENTER":37.3887,"MEAN_ANOMALY":322.9323,"EPHEMERIS_TYPE":0,"CLASSIFICATION_TYPE":"U","NORAD_CAT_ID":59679,"ELEMENT_SET_NO":999,"REV_AT_EPOCH":10244,"BSTAR":0.00039740634,"MEAN_MOTION_DOT":0.0001232,"MEAN_MOTION_DDOT":0},{"OBJECT_NAME":"STARLINK-33673","OBJECT_ID":"2025-053V","EPOCH":"2026-03-09T11:53:48.437664","MEAN_MOTION":15.27557926,"ECCENTRICITY":0.00015406,"INCLINATION":42.9997,"RA_OF_ASC_NODE":235.0792,"ARG_OF_PERICENTER":279.426,"MEAN_ANOMALY":80.6418,"EPHEMERIS_TYPE":0,"CLASSIFICATION_TYPE":"U","NORAD_CAT_ID":63284,"ELEMENT_SET_NO":999,"REV_AT_EPOCH":5636,"BSTAR":0.0012387715,"MEAN_MOTION_DOT":0.0003396,"MEAN_MOTION_DDOT":0}]
